{"type": "FeatureCollection", "features": [{"type": "Feature", "properties": {"norad_id": 32275, "name": "COSMOS 2433 (720)", "group": "glo-ops", "lat": 27.8889556762835, "lon": 127.92358114832427, "alt_km": 19130.619711575593, "timestamp": "2025-12-25T11:37:44.696253+00:00", "meta": {"OBJECT_NAME": "COSMOS 2433 (720)", "OBJECT_ID": "2007-052A", "EPOCH": "2025-12-24T08:26:16.805760", "MEAN_MOTION": 2.13104186, "ECCENTRICITY": 0.00051043, "INCLINATION": 65.677, "RA_OF_ASC_NODE": 321.8159, "ARG_OF_PERICENTER": 257.0223, "MEAN_ANOMALY": 102.9214, "EPHEMERIS_TYPE": 0, "CLASSIFICATION_TYPE": "U", "NORAD_CAT_ID": 32275, "ELEMENT_SET_NO": 999, "REV_AT_EPOCH": 14133, "BSTAR": 0, "MEAN_MOTION_DOT": -3.3e-07, "MEAN_MOTION_DDOT": 0}, "tle": {"line1": "1 32275U 07052A   25358.35158340 -.00000033  00000+0  00000+0 0  9990", "line2": "2 32275  65.6770 321.8159 0005104 257.0223 102.9214  2.13104186141339"}}, "geometry": {"type": "Point", "coordinates": [127.92358114832427, 27.8889556762835]}}, {"type": "Feature", "properties": {"norad_id": 32276, "name": "COSMOS 2432 (719)", "group": "glo-ops", "lat": 65.43544366100322, "lon": 60.72168416477804, "alt_km": 19144.733298771567, "timestamp": "2025-12-25T11:37:44.696277+00:00", "meta": {"OBJECT_NAME": "COSMOS 2432 (719)", "OBJECT_ID": "2007-052B", "EPOCH": "2025-12-24T04:32:38.772960", "MEAN_MOTION": 2.13103387, "ECCENTRICITY": 0.00113791, "INCLINATION": 65.6931, "RA_OF_ASC_NODE": 321.9458, "ARG_OF_PERICENTER": 314.7871, "MEAN_ANOMALY": 225.1187, "EPHEMERIS_TYPE": 0, "CLASSIFICATION_TYPE": "U", "NORAD_CAT_ID": 32276, "ELEMENT_SET_NO": 999, "REV_AT_EPOCH": 14135, "BSTAR": 0, "MEAN_MOTION_DOT": -3.3e-07, "MEAN_MOTION_DDOT": 0}, "tle": {"line1": "1 32276U 07052B   25358.18933765 -.00000033  00000+0  00000+0 0  9994", "line2": "2 32276  65.6931 321.9458 0011379 314.7871 225.1187  2.13103387141354"}}, "geometry": {"type": "Point", "coordinates": [60.72168416477804, 65.43544366100322]}}, {"type": "Feature", "properties": {"norad_id": 32393, "name": "COSMOS 2434 (721)", "group": "glo-ops", "lat": 35.06893346004804, "lon": -142.46937198806043, "alt_km": 19115.553513274488, "timestamp": "2025-12-25T11:37:44.696291+00:00", "meta": {"OBJECT_NAME": "COSMOS 2434 (721)", "OBJECT_ID": "2007-065A", "EPOCH": "2025-12-25T04:50:38.690880", "MEAN_MOTION": 2.13101426, "ECCENTRICITY": 0.0004815, "INCLINATION": 64.316, "RA_OF_ASC_NODE": 197.7825, "ARG_OF_PERICENTER": 72.3335, "MEAN_ANOMALY": 110.4789, "EPHEMERIS_TYPE": 0, "CLASSIFICATION_TYPE": "U", "NORAD_CAT_ID": 32393, "ELEMENT_SET_NO": 999, "REV_AT_EPOCH": 14006, "BSTAR": 0, "MEAN_MOTION_DOT": 1.04e-06, "MEAN_MOTION_DDOT": 0}, "tle": {"line1": "1 32393U 07065A   25359.20183670  .00000104  00000+0  00000+0 0  9992", "line2": "2 32393  64.3160 197.7825 0004815  72.3335 110.4789  2.13101426140063"}}, "geometry": {"type": "Point", "coordinates": [-142.46937198806043, 35.06893346004804]}}, {"type": "Feature", "properties": {"norad_id": 32395, "name": "COSMOS 2436 (723)", "group": "glo-ops", "lat": 6.497206649995269, "lon": 14.705574758959337, "alt_km": 19173.04604402262, "timestamp": "2025-12-25T11:37:44.696304+00:00", "meta": {"OBJECT_NAME": "COSMOS 2436 (723)", "OBJECT_ID": "2007-065C", "EPOCH": "2025-12-25T01:12:08.218368", "MEAN_MOTION": 2.13100207, "ECCENTRICITY": 0.0017813, "INCLINATION": 64.3246, "RA_OF_ASC_NODE": 197.8581, "ARG_OF_PERICENTER": 10.2365, "MEAN_ANOMALY": 189.1896, "EPHEMERIS_TYPE": 0, "CLASSIFICATION_TYPE": "U", "NORAD_CAT_ID": 32395, "ELEMENT_SET_NO": 999, "REV_AT_EPOCH": 14001, "BSTAR": 0, "MEAN_MOTION_DOT": 1.03e-06, "MEAN_MOTION_DDOT": 0}, "tle": {"line1": "1 32395U 07065C   25359.05009512  .00000103  00000+0  00000+0 0  9998", "line2": "2 32395  64.3246 197.8581 0017813  10.2365 189.1896  2.13100207140019"}}, "geometry": {"type": "Point", "coordinates": [14.705574758959337, 6.497206649995269]}}, {"type": "Feature", "properties": {"norad_id": 36111, "name": "COSMOS 2456 (730)", "group": "glo-ops", "lat": -15.191302326386005, "lon": -95.78519537096645, "alt_km": 19133.526346942122, "timestamp": "2025-12-25T11:37:44.696317+00:00", "meta": {"OBJECT_NAME": "COSMOS 2456 (730)", "OBJECT_ID": "2009-070A", "EPOCH": "2025-12-24T09:16:29.146080", "MEAN_MOTION": 2.13103739, "ECCENTRICITY": 0.00036447, "INCLINATION": 64.9059, "RA_OF_ASC_NODE": 76.94, "ARG_OF_PERICENTER": 294.9884, "MEAN_ANOMALY": 139.4332, "EPHEMERIS_TYPE": 0, "CLASSIFICATION_TYPE": "U", "NORAD_CAT_ID": 36111, "ELEMENT_SET_NO": 999, "REV_AT_EPOCH": 12470, "BSTAR": 0, "MEAN_MOTION_DOT": -1e-08, "MEAN_MOTION_DDOT": 0}, "tle": {"line1": "1 36111U 09070A   25358.38644845 -.00000001  00000+0  00000+0 0  9993", "line2": "2 36111  64.9059  76.9400 0003644 294.9884 139.4332  2.13103739124702"}}, "geometry": {"type": "Point", "coordinates": [-95.78519537096645, -15.191302326386005]}}, {"type": "Feature", "properties": {"norad_id": 36112, "name": "COSMOS 2457 (733)", "group": "glo-ops", "lat": -30.56235948839635, "lon": 60.711259030748515, "alt_km": 19145.084458001973, "timestamp": "2025-12-25T11:37:44.696328+00:00", "meta": {"OBJECT_NAME": "COSMOS 2457 (733)", "OBJECT_ID": "2009-070B", "EPOCH": "2025-12-23T15:49:23.328192", "MEAN_MOTION": 2.13101141, "ECCENTRICITY": 0.00045057, "INCLINATION": 64.8913, "RA_OF_ASC_NODE": 76.812, "ARG_OF_PERICENTER": 162.7292, "MEAN_ANOMALY": 202.8862, "EPHEMERIS_TYPE": 0, "CLASSIFICATION_TYPE": "U", "NORAD_CAT_ID": 36112, "ELEMENT_SET_NO": 999, "REV_AT_EPOCH": 12469, "BSTAR": 0, "MEAN_MOTION_DOT": -1e-08, "MEAN_MOTION_DDOT": 0}, "tle": {"line1": "1 36112U 09070B   25357.65929778 -.00000001  00000+0  00000+0 0  9994", "line2": "2 36112  64.8913  76.8120 0004505 162.7292 202.8862  2.13101141124697"}}, "geometry": {"type": "Point", "coordinates": [60.711259030748515, -30.56235948839635]}}, {"type": "Feature", "properties": {"norad_id": 36402, "name": "COSMOS 2460 (732)", "group": "glo-ops", "lat": -30.965642625090997, "lon": -55.52294487404734, "alt_km": 19128.95281049073, "timestamp": "2025-12-25T11:37:44.696340+00:00", "meta": {"OBJECT_NAME": "COSMOS 2460 (732)", "OBJECT_ID": "2010-007C", "EPOCH": "2025-12-25T05:13:15.714336", "MEAN_MOTION": 2.13106358, "ECCENTRICITY": 0.0002488, "INCLINATION": 65.5229, "RA_OF_ASC_NODE": 320.3522, "ARG_OF_PERICENTER": 284.3328, "MEAN_ANOMALY": 196.3838, "EPHEMERIS_TYPE": 0, "CLASSIFICATION_TYPE": "U", "NORAD_CAT_ID": 36402, "ELEMENT_SET_NO": 999, "REV_AT_EPOCH": 12302, "BSTAR": 0, "MEAN_MOTION_DOT": -3.2e-07, "MEAN_MOTION_DDOT": 0}, "tle": {"line1": "1 36402U 10007C   25359.21754299 -.00000032  00000+0  00000+0 0  9990", "line2": "2 36402  65.5229 320.3522 0002488 284.3328 196.3838  2.13106358123020"}}, "geometry": {"type": "Point", "coordinates": [-55.52294487404734, -30.965642625090997]}}, {"type": "Feature", "properties": {"norad_id": 37867, "name": "COSMOS 2476 (744)", "group": "glo-ops", "lat": 61.26928326927802, "lon": -158.7511427867875, "alt_km": 19163.215521466518, "timestamp": "2025-12-25T11:37:44.696351+00:00", "meta": {"OBJECT_NAME": "COSMOS 2476 (744)", "OBJECT_ID": "2011-064A", "EPOCH": "2025-12-24T09:57:47.072160", "MEAN_MOTION": 2.13103925, "ECCENTRICITY": 0.00245084, "INCLINATION": 65.1679, "RA_OF_ASC_NODE": 78.7766, "ARG_OF_PERICENTER": 235.0068, "MEAN_ANOMALY": 129.7601, "EPHEMERIS_TYPE": 0, "CLASSIFICATION_TYPE": "U", "NORAD_CAT_ID": 37867, "ELEMENT_SET_NO": 999, "REV_AT_EPOCH": 11004, "BSTAR": 0, "MEAN_MOTION_DOT": 1e-08, "MEAN_MOTION_DDOT": 0}, "tle": {"line1": "1 37867U 11064A   25358.41512815  .00000001  00000+0  00000+0 0  9992", "line2": "2 37867  65.1679  78.7766 0024508 235.0068 129.7601  2.13103925110049"}}, "geometry": {"type": "Point", "coordinates": [-158.7511427867875, 61.26928326927802]}}, {"type": "Feature", "properties": {"norad_id": 37868, "name": "COSMOS 2477 (745)", "group": "glo-ops", "lat": -60.632547304151316, "lon": 23.607560457961213, "alt_km": 19101.374894249915, "timestamp": "2025-12-25T11:37:44.696363+00:00", "meta": {"OBJECT_NAME": "COSMOS 2477 (745)", "OBJECT_ID": "2011-064B", "EPOCH": "2025-12-24T15:22:57.950400", "MEAN_MOTION": 2.13103036, "ECCENTRICITY": 0.00215718, "INCLINATION": 65.1748, "RA_OF_ASC_NODE": 78.8466, "ARG_OF_PERICENTER": 235.4688, "MEAN_ANOMALY": 123.4303, "EPHEMERIS_TYPE": 0, "CLASSIFICATION_TYPE": "U", "NORAD_CAT_ID": 37868, "ELEMENT_SET_NO": 999, "REV_AT_EPOCH": 11003, "BSTAR": 0, "MEAN_MOTION_DOT": 1e-08, "MEAN_MOTION_DDOT": 0}, "tle": {"line1": "1 37868U 11064B   25358.64094850  .00000001  00000+0  00000+0 0  9992", "line2": "2 37868  65.1748  78.8466 0021571 235.4688 123.4303  2.13103036110036"}}, "geometry": {"type": "Point", "coordinates": [23.607560457961213, -60.632547304151316]}}, {"type": "Feature", "properties": {"norad_id": 37869, "name": "COSMOS 2475 (743)", "group": "glo-ops", "lat": -53.21849518316355, "lon": -62.973774257651776, "alt_km": 19068.150863488874, "timestamp": "2025-12-25T11:37:44.696374+00:00", "meta": {"OBJECT_NAME": "COSMOS 2475 (743)", "OBJECT_ID": "2011-064C", "EPOCH": "2025-12-25T05:57:40.330080", "MEAN_MOTION": 2.1310165, "ECCENTRICITY": 0.0026773, "INCLINATION": 65.1818, "RA_OF_ASC_NODE": 78.8463, "ARG_OF_PERICENTER": 249.2295, "MEAN_ANOMALY": 171.5586, "EPHEMERIS_TYPE": 0, "CLASSIFICATION_TYPE": "U", "NORAD_CAT_ID": 37869, "ELEMENT_SET_NO": 999, "REV_AT_EPOCH": 11006, "BSTAR": 0, "MEAN_MOTION_DOT": -1e-08, "MEAN_MOTION_DDOT": 0}, "tle": {"line1": "1 37869U 11064C   25359.24838345 -.00000001  00000+0  00000+0 0  9996", "line2": "2 37869  65.1818  78.8463 0026773 249.2295 171.5586  2.13101650110068"}}, "geometry": {"type": "Point", "coordinates": [-62.973774257651776, -53.21849518316355]}}]}